{"type": "FeatureCollection", "features": [ {"type": "Feature", "properties": {"norad_id": 66593, "name": "STARLINK-36031", "group": "last-30-days", "lat": 18.000233044669724, "lon": -123.85025964264953, "alt_km": 388.4411507537725, "timestamp": "2025-12-08T19:31:47.637047+00:00", "meta": {"OBJECT_NAME": "STARLINK-36031", "OBJECT_ID": "2025-270F", "EPOCH": "2025-12-08T06:00:02.999808", "MEAN_MOTION": 15.6140076, "ECCENTRICITY": 0.00014714, "INCLINATION": 42.9989, "RA_OF_ASC_NODE": 219.0874, "ARG_OF_PERICENTER": 273.4166, "MEAN_ANOMALY": 183.6445, "EPHEMERIS_TYPE": 0, "CLASSIFICATION_TYPE": "U", "NORAD_CAT_ID": 66593, "ELEMENT_SET_NO": 999, "REV_AT_EPOCH": 367, "BSTAR": -0.025988505, "MEAN_MOTION_DOT": -0.02001182, "MEAN_MOTION_DDOT": 0}, "tle": {"line1": "1 66593U 25270F   25342.25003472 -.02001182  00000+0 -25989-1 0  9993", "line2": "2 66593  42.9989 219.0874 0001471 273.4166 183.6445 15.61400760  3672"}}, "geometry": {"type": "Point", "coordinates": [-123.85025964264953, 18.000233044669724]}}, {"type": "Feature", "properties": {"norad_id": 66594, "name": "STARLINK-36032", "group": "last-30-days", "lat": 19.22040296164182, "lon": -122.29095250358426, "alt_km": 388.1883956557176, "timestamp": "2025-12-08T19:31:47.637056+00:00", "meta": {"OBJECT_NAME": "STARLINK-36032", "OBJECT_ID": "2025-270G", "EPOCH": "2025-12-08T06:00:02.999808", "MEAN_MOTION": 15.6139851, "ECCENTRICITY": 0.0001444, "INCLINATION": 42.9989, "RA_OF_ASC_NODE": 219.0829, "ARG_OF_PERICENTER": 277.0966, "MEAN_ANOMALY": 181.8855, "EPHEMERIS_TYPE": 0, "CLASSIFICATION_TYPE": "U", "NORAD_CAT_ID": 66594, "ELEMENT_SET_NO": 999, "REV_AT_EPOCH": 341, "BSTAR": -0.025973054, "MEAN_MOTION_DOT": -0.01999965, "MEAN_MOTION_DDOT": 0}, "tle": {"line1": "1 66594U 25270G   25342.25003472 -.01999965  00000+0 -25973-1 0  9991", "line2": "2 66594  42.9989 219.0829 0001444 277.0966 181.8855 15.61398510  3417"}}, "geometry": {"type": "Point", "coordinates": [-122.29095250358426, 19.22040296164182]}}, {"type": "Feature", "properties": {"norad_id": 66595, "name": "STARLINK-35711", "group": "last-30-days", "lat": 20.426265876392844, "lon": -120.7104298755569, "alt_km": 388.0885598582345, "timestamp": "2025-12-08T19:31:47.637067+00:00", "meta": {"OBJECT_NAME": "STARLINK-35711", "OBJECT_ID": "2025-270H", "EPOCH": "2025-12-08T06:00:02.999808", "MEAN_MOTION": 15.61398797, "ECCENTRICITY": 0.00015106, "INCLINATION": 42.9988, "RA_OF_ASC_NODE": 219.0774, "ARG_OF_PERICENTER": 275.6429, "MEAN_ANOMALY": 185.2549, "EPHEMERIS_TYPE": 0, "CLASSIFICATION_TYPE": "U", "NORAD_CAT_ID": 66595, "ELEMENT_SET_NO": 999, "REV_AT_EPOCH": 378, "BSTAR": -0.025969643, "MEAN_MOTION_DOT": -0.01999804, "MEAN_MOTION_DDOT": 0}, "tle": {"line1": "1 66595U 25270H   25342.25003472 -.01999804  00000+0 -25970-1 0  9991", "line2": "2 66595  42.9988 219.0774 0001510 275.6429 185.2549 15.61398797  3783"}}, "geometry": {"type": "Point", "coordinates": [-120.7104298755569, 20.426265876392844]}}, {"type": "Feature", "properties": {"norad_id": 66596, "name": "STARLINK-35811", "group": "last-30-days", "lat": 21.619444705146833, "lon": -119.10155122720121, "alt_km": 387.7924186169612, "timestamp": "2025-12-08T19:31:47.637077+00:00", "meta": {"OBJECT_NAME": "STARLINK-35811", "OBJECT_ID": "2025-270J", "EPOCH": "2025-12-08T06:00:02.999808", "MEAN_MOTION": 15.61395036, "ECCENTRICITY": 0.00014078, "INCLINATION": 42.999, "RA_OF_ASC_NODE": 219.073, "ARG_OF_PERICENTER": 279.7994, "MEAN_ANOMALY": 183.0179, "EPHEMERIS_TYPE": 0, "CLASSIFICATION_TYPE": "U", "NORAD_CAT_ID": 66596, "ELEMENT_SET_NO": 999, "REV_AT_EPOCH": 378, "BSTAR": -0.025883065, "MEAN_MOTION_DOT": -0.01993624, "MEAN_MOTION_DDOT": 0}, "tle": {"line1": "1 66596U 25270J   25342.25003472 -.01993624  00000+0 -25883-1 0  9999", "line2": "2 66596  42.9990 219.0730 0001407 279.7994 183.0179 15.61395036  3784"}}, "geometry": {"type": "Point", "coordinates": [-119.10155122720121, 21.619444705146833]}}, {"type": "Feature", "properties": {"norad_id": 66597, "name": "STARLINK-35820", "group": "last-30-days", "lat": 22.794812724823732, "lon": -117.46924709881691, "alt_km": 387.72369937609983, "timestamp": "2025-12-08T19:31:47.637086+00:00", "meta": {"OBJECT_NAME": "STARLINK-35820", "OBJECT_ID": "2025-270K", "EPOCH": "2025-12-08T06:00:02.999808", "MEAN_MOTION": 15.61395853, "ECCENTRICITY": 0.00014064, "INCLINATION": 42.9991, "RA_OF_ASC_NODE": 219.0681, "ARG_OF_PERICENTER": 276.4529, "MEAN_ANOMALY": 188.2801, "EPHEMERIS_TYPE": 0, "CLASSIFICATION_TYPE": "U", "NORAD_CAT_ID": 66597, "ELEMENT_SET_NO": 999, "REV_AT_EPOCH": 378, "BSTAR": -0.025884489, "MEAN_MOTION_DOT": -0.01993776, "MEAN_MOTION_DDOT": 0}, "tle": {"line1": "1 66597U 25270K   25342.25003472 -.01993776  00000+0 -25884-1 0  9999", "line2": "2 66597  42.9991 219.0681 0001406 276.4529 188.2801 15.61395853  3784"}}, "geometry": {"type": "Point", "coordinates": [-117.46924709881691, 22.794812724823732]}}, {"type": "Feature", "properties": {"norad_id": 66598, "name": "STARLINK-35981", "group": "last-30-days", "lat": 23.95060106888761, "lon": -115.8124458545952, "alt_km": 387.7253921071688, "timestamp": "2025-12-08T19:31:47.637095+00:00", "meta": {"OBJECT_NAME": "STARLINK-35981", "OBJECT_ID": "2025-270L", "EPOCH": "2025-12-08T06:00:02.999808", "MEAN_MOTION": 15.61399159, "ECCENTRICITY": 0.00014509, "INCLINATION": 42.9989, "RA_OF_ASC_NODE": 219.0629, "ARG_OF_PERICENTER": 271.1127, "MEAN_ANOMALY": 195.5335, "EPHEMERIS_TYPE": 0, "CLASSIFICATION_TYPE": "U", "NORAD_CAT_ID": 66598, "ELEMENT_SET_NO": 999, "REV_AT_EPOCH": 351, "BSTAR": -0.025951982, "MEAN_MOTION_DOT": -0.01998592, "MEAN_MOTION_DDOT": 0}, "tle": {"line1": "1 66598U 25270L   25342.25003472 -.01998592  00000+0 -25952-1 0  9997", "line2": "2 66598  42.9989 219.0629 0001450 271.1127 195.5335 15.61399159  3516"}}, "geometry": {"type": "Point", "coordinates": [-115.8124458545952, 23.95060106888761]}}, {"type": "Feature", "properties": {"norad_id": 66599, "name": "STARLINK-35930", "group": "last-30-days", "lat": 25.09221985231472, "lon": -114.11850675434557, "alt_km": 387.4734539962683, "timestamp": "2025-12-08T19:31:47.637104+00:00", "meta": {"OBJECT_NAME": "STARLINK-35930", "OBJECT_ID": "2025-270M", "EPOCH": "2025-12-08T06:00:02.999808", "MEAN_MOTION": 15.61397768, "ECCENTRICITY": 0.00014158, "INCLINATION": 42.9988, "RA_OF_ASC_NODE": 219.059, "ARG_OF_PERICENTER": 275.0912, "MEAN_ANOMALY": 193.4757, "EPHEMERIS_TYPE": 0, "CLASSIFICATION_TYPE": "U", "NORAD_CAT_ID": 66599, "ELEMENT_SET_NO": 999, "REV_AT_EPOCH": 367, "BSTAR": -0.025944674, "MEAN_MOTION_DOT": -0.01997978, "MEAN_MOTION_DDOT": 0}, "tle": {"line1": "1 66599U 25270M   25342.25003472 -.01997978  00000+0 -25945-1 0  9997", "line2": "2 66599  42.9988 219.0590 0001415 275.0912 193.4757 15.61397768  3675"}}, "geometry": {"type": "Point", "coordinates": [-114.11850675434557, 25.09221985231472]}}, {"type": "Feature", "properties": {"norad_id": 66600, "name": "STARLINK-35980", "group": "last-30-days", "lat": 26.213546166580983, "lon": -112.39519019539003, "alt_km": 387.38902289172984, "timestamp": "2025-12-08T19:31:47.637112+00:00", "meta": {"OBJECT_NAME": "STARLINK-35980", "OBJECT_ID": "2025-270N", "EPOCH": "2025-12-08T06:00:02.999808", "MEAN_MOTION": 15.6139807, "ECCENTRICITY": 0.0001405, "INCLINATION": 42.999, "RA_OF_ASC_NODE": 219.0541, "ARG_OF_PERICENTER": 271.4444, "MEAN_ANOMALY": 199.0355, "EPHEMERIS_TYPE": 0, "CLASSIFICATION_TYPE": "U", "NORAD_CAT_ID": 66600, "ELEMENT_SET_NO": 999, "REV_AT_EPOCH": 358, "BSTAR": -0.025888068, "MEAN_MOTION_DOT": -0.01994168, "MEAN_MOTION_DDOT": 0}, "tle": {"line1": "1 66600U 25270N   25342.25003472 -.01994168  00000+0 -25888-1 0  9994", "line2": "2 66600  42.9990 219.0541 0001405 271.4444 199.0355 15.61398070  3589"}}, "geometry": {"type": "Point", "coordinates": [-112.39519019539003, 26.213546166580983]}}, {"type": "Feature", "properties": {"norad_id": 66601, "name": "STARLINK-35978", "group": "last-30-days", "lat": 27.312045288254964, "lon": -110.64116381389863, "alt_km": 387.2141234956325, "timestamp": "2025-12-08T19:31:47.637121+00:00", "meta": {"OBJECT_NAME": "STARLINK-35978", "OBJECT_ID": "2025-270P", "EPOCH": "2025-12-08T06:00:02.999808", "MEAN_MOTION": 15.61399233, "ECCENTRICITY": 0.00013818, "INCLINATION": 42.9989, "RA_OF_ASC_NODE": 219.0491, "ARG_OF_PERICENTER": 273.1688, "MEAN_ANOMALY": 199.2306, "EPHEMERIS_TYPE": 0, "CLASSIFICATION_TYPE": "U", "NORAD_CAT_ID": 66601, "ELEMENT_SET_NO": 999, "REV_AT_EPOCH": 351, "BSTAR": -0.025962203, "MEAN_MOTION_DOT": -0.01999236, "MEAN_MOTION_DDOT": 0}, "tle": {"line1": "1 66601U 25270P   25342.25003472 -.01999236  00000+0 -25962-1 0  9999", "line2": "2 66601  42.9989 219.0491 0001381 273.1688 199.2306 15.61399233  3517"}}, "geometry": {"type": "Point", "coordinates": [-110.64116381389863, 27.312045288254964]}}, {"type": "Feature", "properties": {"norad_id": 66602, "name": "STARLINK-36050", "group": "last-30-days", "lat": 28.38937886548651, "lon": -108.8504019560022, "alt_km": 387.0728202157534, "timestamp": "2025-12-08T19:31:47.637130+00:00", "meta": {"OBJECT_NAME": "STARLINK-36050", "OBJECT_ID": "2025-270Q", "EPOCH": "2025-12-08T06:00:02.999808", "MEAN_MOTION": 15.61398342, "ECCENTRICITY": 0.00014504, "INCLINATION": 42.999, "RA_OF_ASC_NODE": 219.0441, "ARG_OF_PERICENTER": 274.6997, "MEAN_ANOMALY": 199.6185, "EPHEMERIS_TYPE": 0, "CLASSIFICATION_TYPE": "U", "NORAD_CAT_ID": 66602, "ELEMENT_SET_NO": 999, "REV_AT_EPOCH": 358, "BSTAR": -0.02597318, "MEAN_MOTION_DOT": -0.01999966, "MEAN_MOTION_DDOT": 0}, "tle": {"line1": "1 66602U 25270Q   25342.25003472 -.01999966  00000+0 -25973-1 0  9992", "line2": "2 66602  42.9990 219.0441 0001450 274.6997 199.6185 15.61398342  3587"}}, "geometry": {"type": "Point", "coordinates": [-108.8504019560022, 28.38937886548651]}}]}